[{"OBJECT_NAME":"COSMOS 2251 DEB","OBJECT_ID":"1993-036AGU","EPOCH":"2026-03-07T10:12:42.037056","MEAN_MOTION":14.38400509,"ECCENTRICITY":0.00189857,"INCLINATION":74.0363,"RA_OF_ASC_NODE":103.2322,"ARG_OF_PERICENTER":184.9407,"MEAN_ANOMALY":175.1563,"EPHEMERIS_TYPE":0,"CLASSIFICATION_TYPE":"U","NORAD_CAT_ID":35031,"ELEMENT_SET_NO":999,"REV_AT_EPOCH":66501,"BSTAR":0.00018732071,"MEAN_MOTION_DOT":5.46e-6,"MEAN_MOTION_DDOT":0},{"OBJECT_NAME":"COSMOS 2251 DEB","OBJECT_ID":"1993-036AGV","EPOCH":"2026-03-07T02:10:50.080224","MEAN_MOTION":14.59494808,"ECCENTRICITY":0.00661975,"INCLINATION":73.8511,"RA_OF_ASC_NODE":204.7129,"ARG_OF_PERICENTER":35.921,"MEAN_ANOMALY":79.541,"EPHEMERIS_TYPE":0,"CLASSIFICATION_TYPE":"U","NORAD_CAT_ID":35032,"ELEMENT_SET_NO":999,"REV_AT_EPOCH":88904,"BSTAR":0.00094663287,"MEAN_MOTION_DOT":4.603e-5,"MEAN_MOTION_DDOT":0},{"OBJECT_NAME":"COSMOS 2251 DEB","OBJECT_ID":"1993-036AHB","EPOCH":"2026-03-03T23:07:42.163680","MEAN_MOTION":14.25870634,"ECCENTRICITY":0.0112501,"INCLINATION":74.1051,"RA_OF_ASC_NODE":256.5836,"ARG_OF_PERICENTER":220.5061,"MEAN_ANOMALY":291.2997,"EPHEMERIS_TYPE":0,"CLASSIFICATION_TYPE":"U","NORAD_CAT_ID":35038,"ELEMENT_SET_NO":999,"REV_AT_EPOCH":86726,"BSTAR":0.001778,"MEAN_MOTION_DOT":4.5e-5,"MEAN_MOTION_DDOT":0},{"OBJECT_NAME":"COSMOS 2251 DEB","OBJECT_ID":"1993-036AHG","EPOCH":"2026-03-06T21:30:55.492704","MEAN_MOTION":14.81785216,"ECCENTRICITY":0.00879511,"INCLINATION":73.9476,"RA_OF_ASC_NODE":239.0819,"ARG_OF_PERICENTER":65.5895,"MEAN_ANOMALY":295.4427,"EPHEMERIS_TYPE":0,"CLASSIFICATION_TYPE":"U","NORAD_CAT_ID":35043,"ELEMENT_SET_NO":999,"REV_AT_EPOCH":68663,"BSTAR":0.0040052833,"MEAN_MOTION_DOT":0.00033943,"MEAN_MOTION_DDOT":0},{"OBJECT_NAME":"COSMOS 2251 DEB","OBJECT_ID":"1993-036AHJ","EPOCH":"2026-03-06T21:06:03.508128","MEAN_MOTION":14.00583161,"ECCENTRICITY":0.01813344,"INCLINATION":73.716,"RA_OF_ASC_NODE":264.078,"ARG_OF_PERICENTER":133.7715,"MEAN_ANOMALY":227.8587,"EPHEMERIS_TYPE":0,"CLASSIFICATION_TYPE":"U","NORAD_CAT_ID":35045,"ELEMENT_SET_NO":999,"REV_AT_EPOCH":85821,"BSTAR":0.00078258751,"MEAN_MOTION_DOT":1.317e-5,"MEAN_MOTION_DDOT":0},{"OBJECT_NAME":"COSMOS 2251 DEB","OBJECT_ID":"1993-036AHP","EPOCH":"2026-03-06T10:28:18.030720","MEAN_MOTION":14.41815298,"ECCENTRICITY":0.0017394,"INCLINATION":74.0357,"RA_OF_ASC_NODE":89.2688,"ARG_OF_PERICENTER":164.4726,"MEAN_ANOMALY":195.6967,"EPHEMERIS_TYPE":0,"CLASSIFICATION_TYPE":"U","NORAD_CAT_ID":35060,"ELEMENT_SET_NO":999,"REV_AT_EPOCH":88448,"BSTAR":0.0003654905,"MEAN_MOTION_DOT":1.17e-5,"MEAN_MOTION_DDOT":0},{"OBJECT_NAME":"COSMOS 2251 DEB","OBJECT_ID":"1993-036AHQ","EPOCH":"2026-03-07T12:51:43.861248","MEAN_MOTION":14.68643478,"ECCENTRICITY":0.00417122,"INCLINATION":74.0449,"RA_OF_ASC_NODE":141.8679,"ARG_OF_PERICENTER":235.0034,"MEAN_ANOMALY":124.7218,"EPHEMERIS_TYPE":0,"CLASSIFICATION_TYPE":"U","NORAD_CAT_ID":35061,"ELEMENT_SET_NO":999,"REV_AT_EPOCH":89819,"BSTAR":0.00087324046,"MEAN_MOTION_DOT":5.117e-5,"MEAN_MOTION_DDOT":0},{"OBJECT_NAME":"COSMOS 2251 DEB","OBJECT_ID":"1993-036AHR","EPOCH":"2026-03-04T00:14:52.268352","MEAN_MOTION":14.23891079,"ECCENTRICITY":0.01263831,"INCLINATION":74.0809,"RA_OF_ASC_NODE":307.4228,"ARG_OF_PERICENTER":285.9486,"MEAN_ANOMALY":72.7766,"EPHEMERIS_TYPE":0,"CLASSIFICATION_TYPE":"U","NORAD_CAT_ID":35062,"ELEMENT_SET_NO":999,"REV_AT_EPOCH":86655,"BSTAR":0.0018042989,"MEAN_MOTION_DOT":4.466e-5,"MEAN_MOTION_DDOT":0},{"OBJECT_NAME":"COSMOS 2251 DEB","OBJECT_ID":"1993-036AHU","EPOCH":"2026-03-07T05:37:52.045824","MEAN_MOTION":14.46044959,"ECCENTRICITY":0.0018616,"INCLINATION":74.0208,"RA_OF_ASC_NODE":36.5607,"ARG_OF_PERICENTER":149.0675,"MEAN_ANOMALY":211.1584,"EPHEMERIS_TYPE":0,"CLASSIFICATION_TYPE":"U","NORAD_CAT_ID":35065,"ELEMENT_SET_NO":999,"REV_AT_EPOCH":69572,"BSTAR":0.00063322,"MEAN_MOTION_DOT":2.236e-5,"MEAN_MOTION_DDOT":0},{"OBJECT_NAME":"COSMOS 2251 DEB","OBJECT_ID":"1993-036AJA","EPOCH":"2026-02-11T08:52:27.880032","MEAN_MOTION":15.05018922,"ECCENTRICITY":0.00700444,"INCLINATION":73.9325,"RA_OF_ASC_NODE":48.614,"ARG_OF_PERICENTER":290.1885,"MEAN_ANOMALY":69.178,"EPHEMERIS_TYPE":0,"CLASSIFICATION_TYPE":"U","NORAD_CAT_ID":35071,"ELEMENT_SET_NO":999,"REV_AT_EPOCH":68448,"BSTAR":0.0010407924,"MEAN_MOTION_DOT":0.00015602,"MEAN_MOTION_DDOT":0},{"OBJECT_NAME":"COSMOS 2251 DEB","OBJECT_ID":"1993-036AJC","EPOCH":"2026-03-06T14:19:59.759616","MEAN_MOTION":15.09503871,"ECCENTRICITY":0.00183916,"INCLINATION":73.9984,"RA_OF_ASC_NODE":158.5017,"ARG_OF_PERICENTER":282.3465,"MEAN_ANOMALY":77.5667,"EPHEMERIS_TYPE":0,"CLASSIFICATION_TYPE":"U","NORAD_CAT_ID":35073,"ELEMENT_SET_NO":999,"REV_AT_EPOCH":68740,"BSTAR":0.0044237131,"MEAN_MOTION_DOT":0.00071878,"MEAN_MOTION_DDOT":0},{"OBJECT_NAME":"COSMOS 2251 DEB","OBJECT_ID":"1993-036AJN","EPOCH":"2026-03-03T20:42:02.255040","MEAN_MOTION":14.38419398,"ECCENTRICITY":0.0016437,"INCLINATION":74.0478,"RA_OF_ASC_NODE":115.0513,"ARG_OF_PERICENTER":181.2232,"MEAN_ANOMALY":292.991,"EPHEMERIS_TYPE":0,"CLASSIFICATION_TYPE":"U","NORAD_CAT_ID":35284,"ELEMENT_SET_NO":999,"REV_AT_EPOCH":66692,"BSTAR":0.00019062,"MEAN_MOTION_DOT":5.56e-6,"MEAN_MOTION_DDOT":0},{"OBJECT_NAME":"COSMOS 2251 DEB","OBJECT_ID":"1993-036AJR","EPOCH":"2026-03-03T14:21:49.013280","MEAN_MOTION":14.36453474,"ECCENTRICITY":0.001866,"INCLINATION":74.0296,"RA_OF_ASC_NODE":127.5502,"ARG_OF_PERICENTER":212.6748,"MEAN_ANOMALY":302.5155,"EPHEMERIS_TYPE":0,"CLASSIFICATION_TYPE":"U","NORAD_CAT_ID":35287,"ELEMENT_SET_NO":999,"REV_AT_EPOCH":88053,"BSTAR":0.00014851,"MEAN_MOTION_DOT":4.1e-6,"MEAN_MOTION_DDOT":0},{"OBJECT_NAME":"COSMOS 2251 DEB","OBJECT_ID":"1993-036AJS","EPOCH":"2026-03-05T17:31:04.132416","MEAN_MOTION":14.66624828,"ECCENTRICITY":0.00367071,"INCLINATION":73.9508,"RA_OF_ASC_NODE":214.4295,"ARG_OF_PERICENTER":64.1471,"MEAN_ANOMALY":296.3475,"EPHEMERIS_TYPE":0,"CLASSIFICATION_TYPE":"U","NORAD_CAT_ID":35288,"ELEMENT_SET_NO":999,"REV_AT_EPOCH":89094,"BSTAR":0.0017191419,"MEAN_MOTION_DOT":9.632e-5,"MEAN_MOTION_DDOT":0},{"OBJECT_NAME":"COSMOS 2251 DEB","OBJECT_ID":"1993-036AJU","EPOCH":"2026-03-05T22:29:26.084544","MEAN_MOTION":14.83402421,"ECCENTRICITY":0.00038866,"INCLINATION":74.0013,"RA_OF_ASC_NODE":254.7461,"ARG_OF_PERICENTER":346.5581,"MEAN_ANOMALY":13.5493,"EPHEMERIS_TYPE":0,"CLASSIFICATION_TYPE":"U","NORAD_CAT_ID":35290,"ELEMENT_SET_NO":999,"REV_AT_EPOCH":89190,"BSTAR":0.0021521664,"MEAN_MOTION_DOT":0.00017678,"MEAN_MOTION_DDOT":0},{"OBJECT_NAME":"COSMOS 2251 DEB","OBJECT_ID":"1993-036AKA","EPOCH":"2026-03-07T09:49:23.552832","MEAN_MOTION":15.62782868,"ECCENTRICITY":0.00130955,"INCLINATION":74.0063,"RA_OF_ASC_NODE":193.1863,"ARG_OF_PERICENTER":331.9342,"MEAN_ANOMALY":28.1169,"EPHEMERIS_TYPE":0,"CLASSIFICATION_TYPE":"U","NORAD_CAT_ID":35432,"ELEMENT_SET_NO":999,"REV_AT_EPOCH":88804,"BSTAR":0.013733622,"MEAN_MOTION_DOT":0.0137427,"MEAN_MOTION_DDOT":0}]
