COSMOS 2251 DEB         
1 35031U 93036AGU 26066.42548654  .00000546  00000+0  18732-3 0  9999
2 35031  74.0363 103.2322 0018985 184.9407 175.1563 14.38400509665014
COSMOS 2251 DEB         
1 35032U 93036AGV 26066.09085741  .00004603  00000+0  94663-3 0  9991
2 35032  73.8511 204.7129 0066197  35.9210  79.5410 14.59494808889041
COSMOS 2251 DEB         
1 35038U 93036AHB 26062.96368245  .00004500  00000+0  17780-2 0  9992
2 35038  74.1051 256.5836 0112501 220.5061 291.2997 14.25870634867268
COSMOS 2251 DEB         
1 35043U 93036AHG 26065.89647561  .00033943  00000+0  40053-2 0  9996
2 35043  73.9476 239.0819 0087951  65.5895 295.4427 14.81785216686638
COSMOS 2251 DEB         
1 35045U 93036AHJ 26065.87920727  .00001317  00000+0  78259-3 0  9994
2 35045  73.7160 264.0780 0181334 133.7715 227.8587 14.00583161858219
COSMOS 2251 DEB         
1 35060U 93036AHP 26065.43631980  .00001170  00000+0  36549-3 0  9996
2 35060  74.0357  89.2688 0017394 164.4726 195.6967 14.41815298884485
COSMOS 2251 DEB         
1 35061U 93036AHQ 26066.53592432  .00005117  00000+0  87324-3 0  9999
2 35061  74.0449 141.8679 0041712 235.0034 124.7218 14.68643478898194
COSMOS 2251 DEB         
1 35062U 93036AHR 26063.01032718  .00004466  00000+0  18043-2 0  9993
2 35062  74.0809 307.4228 0126383 285.9486  72.7766 14.23891079866556
COSMOS 2251 DEB         
1 35065U 93036AHU 26066.23463016  .00002236  00000+0  63322-3 0  9996
2 35065  74.0208  36.5607 0018616 149.0675 211.1584 14.46044959695720
COSMOS 2251 DEB         
1 35071U 93036AJA 26042.36976713  .00015602  00000+0  10408-2 0  9991
2 35071  73.9325  48.6140 0070044 290.1885  69.1780 15.05018922684482
COSMOS 2251 DEB         
1 35073U 93036AJC 26065.59721944  .00071878  00000+0  44237-2 0  9991
2 35073  73.9984 158.5017 0018391 282.3465  77.5667 15.09503871687401
COSMOS 2251 DEB         
1 35284U 93036AJN 26062.86252610  .00000556  00000+0  19062-3 0  9995
2 35284  74.0478 115.0513 0016437 181.2232 292.9910 14.38419398666921
COSMOS 2251 DEB         
1 35287U 93036AJR 26062.59848395  .00000410  00000+0  14851-3 0  9999
2 35287  74.0296 127.5502 0018660 212.6748 302.5155 14.36453474880534
COSMOS 2251 DEB         
1 35288U 93036AJS 26064.72990894  .00009632  00000+0  17191-2 0  9993
2 35288  73.9508 214.4295 0036707  64.1471 296.3475 14.66624828890946
COSMOS 2251 DEB         
1 35290U 93036AJU 26064.93710746  .00017678  00000+0  21522-2 0  9997
2 35290  74.0013 254.7461 0003886 346.5581  13.5493 14.83402421891903
COSMOS 2251 DEB         
1 35432U 93036AKA 26066.40930038  .01374270  00000+0  13734-1 0  9997
2 35432  74.0063 193.1863 0013095 331.9342  28.1169 15.62782868888041
